{"type": "FeatureCollection", "features": [ {"type": "Feature", "properties": {"norad_id": 33650, "name": "FENGYUN 1C DEB", "group": "fengyun-1c-debris", "lat": -52.59405651618236, "lon": 163.3507794123057, "alt_km": 1013.1881183467203, "timestamp": "2025-12-12T07:43:20.800908+00:00", "meta": {"OBJECT_NAME": "FENGYUN 1C DEB", "OBJECT_ID": "1999-025DEK", "EPOCH": "2025-12-11T09:30:38.011392", "MEAN_MOTION": 13.89190358, "ECCENTRICITY": 0.01499072, "INCLINATION": 98.9876, "RA_OF_ASC_NODE": 150.5139, "ARG_OF_PERICENTER": 82.7256, "MEAN_ANOMALY": 279.0915, "EPHEMERIS_TYPE": 0, "CLASSIFICATION_TYPE": "U", "NORAD_CAT_ID": 33650, "ELEMENT_SET_NO": 999, "REV_AT_EPOCH": 68790, "BSTAR": 0.0011281817, "MEAN_MOTION_DOT": 1.46e-05, "MEAN_MOTION_DDOT": 0}, "tle": {"line1": "1 33650U 99025DEK 25345.39627328  .00001460  00000+0  11282-2 0  9997", "line2": "2 33650  98.9876 150.5139 0149907  82.7256 279.0915 13.89190358687900"}}, "geometry": {"type": "Point", "coordinates": [163.3507794123057, -52.59405651618236]}}, {"type": "Feature", "properties": {"norad_id": 33651, "name": "FENGYUN 1C DEB", "group": "fengyun-1c-debris", "lat": 8.306315102992341, "lon": -146.81148616050473, "alt_km": 862.7802086971169, "timestamp": "2025-12-12T07:43:20.800919+00:00", "meta": {"OBJECT_NAME": "FENGYUN 1C DEB", "OBJECT_ID": "1999-025DEL", "EPOCH": "2025-12-09T09:36:40.963968", "MEAN_MOTION": 14.20352443, "ECCENTRICITY": 0.01178528, "INCLINATION": 98.6567, "RA_OF_ASC_NODE": 29.0543, "ARG_OF_PERICENTER": 63.5748, "MEAN_ANOMALY": 297.7466, "EPHEMERIS_TYPE": 0, "CLASSIFICATION_TYPE": "U", "NORAD_CAT_ID": 33651, "ELEMENT_SET_NO": 999, "REV_AT_EPOCH": 64224, "BSTAR": 0.00025261989, "MEAN_MOTION_DOT": 5.38e-06, "MEAN_MOTION_DDOT": 0}, "tle": {"line1": "1 33651U 99025DEL 25343.40047412  .00000538  00000+0  25262-3 0  9997", "line2": "2 33651  98.6567  29.0543 0117852  63.5748 297.7466 14.20352443642248"}}, "geometry": {"type": "Point", "coordinates": [-146.81148616050473, 8.306315102992341]}}, {"type": "Feature", "properties": {"norad_id": 33655, "name": "FENGYUN 1C DEB", "group": "fengyun-1c-debris", "lat": 68.32227975564639, "lon": -105.53778980424502, "alt_km": 578.4232396828693, "timestamp": "2025-12-12T07:43:20.800929+00:00", "meta": {"OBJECT_NAME": "FENGYUN 1C DEB", "OBJECT_ID": "1999-025DEQ", "EPOCH": "2025-12-11T10:23:28.870656", "MEAN_MOTION": 14.9764619, "ECCENTRICITY": 0.00475767, "INCLINATION": 98.8013, "RA_OF_ASC_NODE": 50.5207, "ARG_OF_PERICENTER": 2.7991, "MEAN_ANOMALY": 357.3485, "EPHEMERIS_TYPE": 0, "CLASSIFICATION_TYPE": "U", "NORAD_CAT_ID": 33655, "ELEMENT_SET_NO": 999, "REV_AT_EPOCH": 96538, "BSTAR": 0.003419074, "MEAN_MOTION_DOT": 0.00041083, "MEAN_MOTION_DDOT": 0}, "tle": {"line1": "1 33655U 99025DEQ 25345.43297304  .00041083  00000+0  34191-2 0  9993", "line2": "2 33655  98.8013  50.5207 0047576   2.7991 357.3485 14.97646190965382"}}, "geometry": {"type": "Point", "coordinates": [-105.53778980424502, 68.32227975564639]}}, {"type": "Feature", "properties": {"norad_id": 33656, "name": "FENGYUN 1C DEB", "group": "fengyun-1c-debris", "lat": -20.69987233756036, "lon": -17.334470253477154, "alt_km": 782.062778258939, "timestamp": "2025-12-12T07:43:20.800941+00:00", "meta": {"OBJECT_NAME": "FENGYUN 1C DEB", "OBJECT_ID": "1999-025DER", "EPOCH": "2025-12-08T19:25:37.486560", "MEAN_MOTION": 14.2271982, "ECCENTRICITY": 0.00906449, "INCLINATION": 98.5783, "RA_OF_ASC_NODE": 335.9755, "ARG_OF_PERICENTER": 42.7826, "MEAN_ANOMALY": 318.0362, "EPHEMERIS_TYPE": 0, "CLASSIFICATION_TYPE": "U", "NORAD_CAT_ID": 33656, "ELEMENT_SET_NO": 999, "REV_AT_EPOCH": 62653, "BSTAR": 0.00077976866, "MEAN_MOTION_DOT": 1.78e-05, "MEAN_MOTION_DDOT": 0}, "tle": {"line1": "1 33656U 99025DER 25342.80946165  .00001780  00000+0  77977-3 0  9998", "line2": "2 33656  98.5783 335.9755 0090644  42.7826 318.0362 14.22719820626535"}}, "geometry": {"type": "Point", "coordinates": [-17.334470253477154, -20.69987233756036]}}, {"type": "Feature", "properties": {"norad_id": 33658, "name": "FENGYUN 1C DEB", "group": "fengyun-1c-debris", "lat": 40.78621013500925, "lon": -32.109704454477466, "alt_km": 869.5447936062837, "timestamp": "2025-12-12T07:43:20.800954+00:00", "meta": {"OBJECT_NAME": "FENGYUN 1C DEB", "OBJECT_ID": "1999-025DET", "EPOCH": "2025-12-10T03:55:02.596800", "MEAN_MOTION": 13.62337712, "ECCENTRICITY": 0.02836119, "INCLINATION": 99.5634, "RA_OF_ASC_NODE": 137.408, "ARG_OF_PERICENTER": 187.7936, "MEAN_ANOMALY": 171.875, "EPHEMERIS_TYPE": 0, "CLASSIFICATION_TYPE": "U", "NORAD_CAT_ID": 33658, "ELEMENT_SET_NO": 999, "REV_AT_EPOCH": 58104, "BSTAR": 0.005143475, "MEAN_MOTION_DOT": 5.177e-05, "MEAN_MOTION_DDOT": 0}, "tle": {"line1": "1 33658U 99025DET 25344.16322450  .00005177  00000+0  51435-2 0  9990", "line2": "2 33658  99.5634 137.4080 0283611 187.7936 171.8750 13.62337712581040"}}, "geometry": {"type": "Point", "coordinates": [-32.109704454477466, 40.78621013500925]}}, {"type": "Feature", "properties": {"norad_id": 33660, "name": "FENGYUN 1C DEB", "group": "fengyun-1c-debris", "lat": 48.00553686183329, "lon": -112.20597683243037, "alt_km": 994.0134397184866, "timestamp": "2025-12-12T07:43:20.800964+00:00", "meta": {"OBJECT_NAME": "FENGYUN 1C DEB", "OBJECT_ID": "1999-025DEV", "EPOCH": "2025-12-08T17:21:22.345056", "MEAN_MOTION": 13.91763329, "ECCENTRICITY": 0.01098533, "INCLINATION": 98.6563, "RA_OF_ASC_NODE": 254.177, "ARG_OF_PERICENTER": 257.3117, "MEAN_ANOMALY": 130.7477, "EPHEMERIS_TYPE": 0, "CLASSIFICATION_TYPE": "U", "NORAD_CAT_ID": 33660, "ELEMENT_SET_NO": 999, "REV_AT_EPOCH": 91008, "BSTAR": 0.00090111184, "MEAN_MOTION_DOT": 1.162e-05, "MEAN_MOTION_DDOT": 0}, "tle": {"line1": "1 33660U 99025DEV 25342.72317529  .00001162  00000+0  90111-3 0  9999", "line2": "2 33660  98.6563 254.1770 0109853 257.3117 130.7477 13.91763329910086"}}, "geometry": {"type": "Point", "coordinates": [-112.20597683243037, 48.00553686183329]}}, {"type": "Feature", "properties": {"norad_id": 33663, "name": "FENGYUN 1C DEB", "group": "fengyun-1c-debris", "lat": 22.301715479911756, "lon": -26.193626909033647, "alt_km": 629.1107782464342, "timestamp": "2025-12-12T07:43:20.800974+00:00", "meta": {"OBJECT_NAME": "FENGYUN 1C DEB", "OBJECT_ID": "1999-025DEY", "EPOCH": "2025-12-11T05:20:18.403008", "MEAN_MOTION": 14.61826468, "ECCENTRICITY": 0.00822869, "INCLINATION": 98.8883, "RA_OF_ASC_NODE": 336.3052, "ARG_OF_PERICENTER": 17.9837, "MEAN_ANOMALY": 342.4244, "EPHEMERIS_TYPE": 0, "CLASSIFICATION_TYPE": "U", "NORAD_CAT_ID": 33663, "ELEMENT_SET_NO": 999, "REV_AT_EPOCH": 64180, "BSTAR": 0.0088411339, "MEAN_MOTION_DOT": 0.00046585, "MEAN_MOTION_DDOT": 0}, "tle": {"line1": "1 33663U 99025DEY 25345.22243522  .00046585  00000+0  88411-2 0  9998", "line2": "2 33663  98.8883 336.3052 0082286  17.9837 342.4244 14.61826468641808"}}, "geometry": {"type": "Point", "coordinates": [-26.193626909033647, 22.301715479911756]}}, {"type": "Feature", "properties": {"norad_id": 33664, "name": "FENGYUN 1C DEB", "group": "fengyun-1c-debris", "lat": -7.01116604456077, "lon": 136.16120297806683, "alt_km": 803.2676884996526, "timestamp": "2025-12-12T07:43:20.800985+00:00", "meta": {"OBJECT_NAME": "FENGYUN 1C DEB", "OBJECT_ID": "1999-025DEZ", "EPOCH": "2025-12-02T03:10:30.773568", "MEAN_MOTION": 14.03976749, "ECCENTRICITY": 0.01640632, "INCLINATION": 98.7018, "RA_OF_ASC_NODE": 125.3204, "ARG_OF_PERICENTER": 69.7897, "MEAN_ANOMALY": 292.0828, "EPHEMERIS_TYPE": 0, "CLASSIFICATION_TYPE": "U", "NORAD_CAT_ID": 33664, "ELEMENT_SET_NO": 999, "REV_AT_EPOCH": 90590, "BSTAR": 0.00053085125, "MEAN_MOTION_DOT": 9.05e-06, "MEAN_MOTION_DDOT": 0}, "tle": {"line1": "1 33664U 99025DEZ 25336.13230062  .00000905  00000+0  53085-3 0  9990", "line2": "2 33664  98.7018 125.3204 0164063  69.7897 292.0828 14.03976749905904"}}, "geometry": {"type": "Point", "coordinates": [136.16120297806683, -7.01116604456077]}}, {"type": "Feature", "properties": {"norad_id": 33665, "name": "FENGYUN 1C DEB", "group": "fengyun-1c-debris", "lat": 69.13954854707832, "lon": -51.517807731205544, "alt_km": 554.5670464204304, "timestamp": "2025-12-12T07:43:20.800995+00:00", "meta": {"OBJECT_NAME": "FENGYUN 1C DEB", "OBJECT_ID": "1999-025DFA", "EPOCH": "2025-12-10T14:10:39.816768", "MEAN_MOTION": 14.03622897, "ECCENTRICITY": 0.0455802, "INCLINATION": 99.0225, "RA_OF_ASC_NODE": 102.116, "ARG_OF_PERICENTER": 98.1625, "MEAN_ANOMALY": 267.149, "EPHEMERIS_TYPE": 0, "CLASSIFICATION_TYPE": "U", "NORAD_CAT_ID": 33665, "ELEMENT_SET_NO": 999, "REV_AT_EPOCH": 92561, "BSTAR": 0.0010667, "MEAN_MOTION_DOT": 4.217e-05, "MEAN_MOTION_DDOT": 0}, "tle": {"line1": "1 33665U 99025DFA 25344.59073862  .00004217  00000+0  10667-2 0  9991", "line2": "2 33665  99.0225 102.1160 0455802  98.1625 267.1490 14.03622897925612"}}, "geometry": {"type": "Point", "coordinates": [-51.517807731205544, 69.13954854707832]}}, {"type": "Feature", "properties": {"norad_id": 33673, "name": "FENGYUN 1C DEB", "group": "fengyun-1c-debris", "lat": 70.7759980033734, "lon": 4.947201351511514, "alt_km": 971.714110429155, "timestamp": "2025-12-12T07:43:20.801006+00:00", "meta": {"OBJECT_NAME": "FENGYUN 1C DEB", "OBJECT_ID": "1999-025DFJ", "EPOCH": "2025-12-11T14:53:46.144608", "MEAN_MOTION": 13.95536534, "ECCENTRICITY": 0.01076835, "INCLINATION": 99.3449, "RA_OF_ASC_NODE": 32.4146, "ARG_OF_PERICENTER": 227.378, "MEAN_ANOMALY": 286.0018, "EPHEMERIS_TYPE": 0, "CLASSIFICATION_TYPE": "U", "NORAD_CAT_ID": 33673, "ELEMENT_SET_NO": 999, "REV_AT_EPOCH": 89886, "BSTAR": 0.00060369367, "MEAN_MOTION_DOT": 8.14e-06, "MEAN_MOTION_DDOT": 0}, "tle": {"line1": "1 33673U 99025DFJ 25345.62067297  .00000814  00000+0  60369-3 0  9994", "line2": "2 33673  99.3449  32.4146 0107683 227.3780 286.0018 13.95536534898864"}}, "geometry": {"type": "Point", "coordinates": [4.947201351511514, 70.7759980033734]}}]}